NORAD_CAT_ID,OBJECT_NAME,OBJECT_TYPE,EPOCH,MEAN_MOTION,ECCENTRICITY,INCLINATION,RA_OF_ASC_NODE,ARG_OF_PERICENTER,MEAN_ANOMALY,BSTAR,MEAN_MOTION_DOT,MEAN_MOTION_DDOT,TLE_LINE0,TLE_LINE1,TLE_LINE2,SEMIMAJOR_AXIS,PERIOD,APOGEE,PERIGEE,DECAYED
52858.0,STARLINK-4198,PAYLOAD,2022-07-27 06:00:02,15.73211833,0.0003298,53.214,208.2693,12.9925,358.2654,-1.52e-05,-2.758e-05,0.0,0 STARLINK-4198,1 52858U 22062AE  22208.25002315 -.00002758  00000-0 -15200-4 0  9998,2 52858  53.2140 208.2693 0003298  12.9925 358.2654 15.73211833  6750,6727.861,91.532,351.945,347.5080000000001,0.0
52858.0,STARLINK-4198,PAYLOAD,2022-07-27 14:00:01,15.73268168,0.0003325,53.2135,206.6196,11.0251,89.1108,-0.00069848,-0.00097838,0.0,0 STARLINK-4198,1 52858U 22062AE  22208.58334491 -.00097838  00000-0 -69848-3 0  9996,2 52858  53.2135 206.6196 0003325  11.0251  89.1108 15.73268168  1300,6727.701,91.529,351.80300000000005,347.329,0.0
52858.0,STARLINK-4198,PAYLOAD,2022-07-27 22:00:00,15.73166908,0.0003013999999999,53.2137,204.9682,10.1842,178.9293,0.00051522,0.0007222,0.0,0 STARLINK-4198,1 52858U 22062AE  22208.91667824  .00072220  00000-0  51522-3 0  9998,2 52858  53.2137 204.9682 0003014  10.1842 178.9293 15.73166908  1305,6727.99,91.535,351.88199999999995,347.827,0.0
52858.0,STARLINK-4198,PAYLOAD,2022-07-28 08:00:01,15.73225454,0.0003293,53.2142,202.9087,9.6308,20.6282,-0.00022788,-0.00032526,0.0,0 STARLINK-4198,1 52858U 22062AE  22209.33334491 -.00032526  00000-0 -22788-3 0  9995,2 52858  53.2142 202.9087 0003293   9.6308  20.6282 15.73225454  6923,6727.823,91.532,351.903,347.472,0.0
52858.0,STARLINK-4198,PAYLOAD,2022-07-28 14:00:01,15.73216933,0.0003261,53.214,201.6708,7.1921,359.7785,-0.00037388,-0.00052821,0.0,0 STARLINK-4198,1 52858U 22062AE  22209.58334491 -.00052821  00000-0 -37388-3 0  9994,2 52858  53.2140 201.6708 0003261   7.1921 359.7785 15.73216933  1309,6727.847,91.532,351.906,347.51800000000014,0.0
52858.0,STARLINK-4198,PAYLOAD,2022-07-28 22:00:00,15.73171754,0.0003054,53.2142,200.0197,8.3856,87.5108,0.00046825,0.0006553999999999,0.0,0 STARLINK-4198,1 52858U 22062AE  22209.91667824  .00065540  00000-0  46825-3 0  9996,2 52858  53.2142 200.0197 0003054   8.3856  87.5108 15.73171754  1302,6727.976,91.535,351.895,347.786,0.0
52858.0,STARLINK-4198,PAYLOAD,2022-07-29 06:00:00,15.73234682,0.0003288999999999,53.214,198.3721,7.6089,177.206,-0.00066424,-0.00092992,0.0,0 STARLINK-4198,1 52858U 22062AE  22210.25001157 -.00092992  00000-0 -66424-3 0  9996,2 52858  53.2140 198.3721 0003289   7.6089 177.2060 15.73234682  7065,6727.795999999999,91.531,351.874,347.449,0.0
52858.0,STARLINK-4198,PAYLOAD,2022-07-29 14:00:01,15.731776000000002,0.0003249,53.2135,196.7221,5.2497,268.4892,-7.1225e-05,-0.000106,0.0,0 STARLINK-4198,1 52858U 22062AE  22210.58334491 -.00010600  00000-0 -71225-4 0  9994,2 52858  53.2135 196.7221 0003249   5.2497 268.4892 15.73177600  1302,6727.959,91.534,352.01,347.63800000000015,0.0
52858.0,STARLINK-4198,PAYLOAD,2022-07-29 22:00:00,15.73161514,0.000302,53.214,195.0711,7.4458,355.1882,0.00043806,0.00061216,0.0,0 STARLINK-4198,1 52858U 22062AE  22210.91667824  .00061216  00000-0  43806-3 0  9990,2 52858  53.2140 195.0711 0003020   7.4458 355.1882 15.73161514  7173,6728.005,91.535,351.902,347.838,0.0
52858.0,STARLINK-4198,PAYLOAD,2022-07-30 14:00:01,15.73234401,0.0003293,53.2144,191.7735,8.4353,172.03099999999995,-0.00011774,-0.00017143,0.0,0 STARLINK-4198,1 52858U 22062AE  22211.58334491 -.00017143  00000-0 -11774-3 0  9996,2 52858  53.2144 191.7735 0003293   8.4353 172.0310 15.73234401  7272,6727.797,91.531,351.87800000000016,347.44699999999995,0.0
52858.0,STARLINK-4198,PAYLOAD,2022-07-30 22:00:00,15.73238925,0.0003143999999999,53.2147,190.1226,13.143,256.284,-0.00033591,-0.00047592,0.0,0 STARLINK-4198,1 52858U 22062AE  22211.91667824 -.00047592  00000-0 -33591-3 0  9994,2 52858  53.2147 190.1226 0003144  13.1430 256.2840 15.73238925  1303,6727.784000000002,91.531,351.764,347.534,0.0
52858.0,STARLINK-4198,PAYLOAD,2022-07-31 14:00:01,15.73220052,0.0003353,53.214,186.8247,15.6703,71.625,-9.3532e-05,-0.00013744,0.0,0 STARLINK-4198,1 52858U 22062AE  22212.58334491 -.00013744  00000-0 -93532-4 0  9993,2 52858  53.2140 186.8247 0003353  15.6703  71.6250 15.73220052  1309,6727.8380000000025,91.532,351.959,347.44699999999995,0.0
52858.0,STARLINK-4198,PAYLOAD,2022-07-31 22:00:00,15.73241932,0.0003089,53.2144,185.1741,17.0291,159.2111,-0.00039731,-0.00056128,0.0,0 STARLINK-4198,1 52858U 22062AE  22212.91667824 -.00056128  00000-0 -39731-3 0  9992,2 52858  53.2144 185.1741 0003089  17.0291 159.2111 15.73241932  7482,6727.776,91.531,351.719,347.56199999999984,0.0
52858.0,STARLINK-4198,PAYLOAD,2022-08-01 14:00:01,15.73219276,0.0003288,53.2148,181.8761,14.1896,339.9242,-5.389e-05,-8.188e-05,0.0,0 STARLINK-4198,1 52858U 22062AE  22213.58334491 -.00008188  00000-0 -53890-4 0  9993,2 52858  53.2148 181.8761 0003288  14.1896 339.9242 15.73219276  1304,6727.84,91.532,351.917,347.49300000000005,0.0
52858.0,STARLINK-4198,PAYLOAD,2022-08-01 22:00:00,15.73237869,0.0003162,53.215,180.2257,16.7062,66.3499,4.638900000000001e-07,-5.58e-06,0.0,0 STARLINK-4198,1 52858U 22062AE  22213.91667824 -.00000558  00000-0  46389-6 0  9998,2 52858  53.2150 180.2257 0003162  16.7062  66.3499 15.73237869  1307,6727.7869999999975,91.531,351.78,347.525,0.0
52858.0,STARLINK-4198,PAYLOAD,2022-08-02 14:00:01,15.73245342,0.0003168,53.2142,176.9273,11.7258,249.2318,-0.00080706,-0.0011264,0.0,0 STARLINK-4198,1 52858U 22062AE  22214.58334491 -.00112640  00000-0 -80706-3 0  9998,2 52858  53.2142 176.9273 0003168  11.7258 249.2318 15.73245342  7758,6727.766,91.531,351.76199999999994,347.5,0.0
52858.0,STARLINK-4198,PAYLOAD,2022-08-03 06:00:00,15.73166995,0.0003278,53.2146,173.6298,11.4435,67.3332,0.00034797,0.00048437,0.0,0 STARLINK-4198,1 52858U 22062AE  22215.25001157  .00048437  00000-0  34797-3 0  9992,2 52858  53.2146 173.6298 0003278  11.4435  67.3332 15.73166995  7851,6727.989000000001,91.535,352.06,347.649,0.0
52858.0,STARLINK-4198,PAYLOAD,2022-08-03 14:00:01,15.73218871,0.000319,53.2148,171.9789,11.5751,156.1113,-1.4926e-05,-2.72e-05,0.0,0 STARLINK-4198,1 52858U 22062AE  22215.58334491 -.00002720  00000-0 -14926-4 0  9998,2 52858  53.2148 171.9789 0003190  11.5751 156.1113 15.73218871  1303,6727.840999999999,91.532,351.853,347.56,0.0
52858.0,STARLINK-4198,PAYLOAD,2022-08-03 22:00:01,15.73260932,0.0003033,53.2148,170.3287,13.1541,243.5444,-0.00018229,-0.000262,0.0,0 STARLINK-4198,1 52858U 22062AE  22215.91668981 -.00026200  00000-0 -18229-3 0  9997,2 52858  53.2148 170.3287 0003033  13.1541 243.5444 15.73260932  1303,6727.721,91.53,351.62699999999984,347.546,0.0
52858.0,STARLINK-4198,PAYLOAD,2022-08-04 06:00:00,15.73181541,0.0003312,53.2144,168.6811,11.7363,333.8805,0.00023704,0.00032756,0.0,0 STARLINK-4198,1 52858U 22062AE  22216.25001157  .00032756  00000-0  23704-3 0  9996,2 52858  53.2144 168.6811 0003312  11.7363 333.8805 15.73181541  8015,6727.948,91.534,352.041,347.585,0.0
52858.0,STARLINK-4198,PAYLOAD,2022-08-04 14:00:01,15.73238959,0.0003088,53.2139,167.0301,8.8116,65.7242,-0.00059164,-0.00083004,0.0,0 STARLINK-4198,1 52858U 22062AE  22216.58334491 -.00083004  00000-0 -59164-3 0  9995,2 52858  53.2139 167.0301 0003088   8.8116  65.7242 15.73238959  1306,6727.784000000002,91.531,351.727,347.57199999999995,0.0
52858.0,STARLINK-4198,PAYLOAD,2022-08-04 22:00:00,15.73178947,0.0002941,53.2142,165.3802,8.82,154.654,0.00020617,0.00028389,0.0,0 STARLINK-4198,1 52858U 22062AE  22216.91667824  .00028389  00000-0  20617-3 0  9995,2 52858  53.2142 165.3802 0002941   8.8200 154.6540 15.73178947  8113,6727.955,91.534,351.7990000000001,347.842,0.0
52858.0,STARLINK-4198,PAYLOAD,2022-08-05 14:00:01,15.73269288,0.0003161,53.2164,162.0779,5.7902,335.6054,-0.0046434,-0.00609359,0.0,0 STARLINK-4198,1 52858U 22062AE  22217.58335648 -.00609359  00000-0 -46434-2 0  9993,2 52858  53.2164 162.0779 0003161   5.7902 335.6054 15.73269288  1308,6727.698,91.529,351.689,347.436,0.0
52858.0,STARLINK-4198,PAYLOAD,2022-08-05 22:00:00,15.72961665,0.0003205,53.2176,160.4261,9.2862,60.7788,-0.0084639,-0.01058508,0.0,0 STARLINK-4198,1 52858U 22062AE  22217.91667824 -.01058508  00000-0 -84639-2 0  9998,2 52858  53.2176 160.4261 0003205   9.2862  60.7788 15.72961665  8272,6728.575,91.547,352.596,348.283,0.0
52858.0,STARLINK-4198,PAYLOAD,2022-08-06 05:19:51,15.72553347,0.0003117,53.2139,158.9222,341.9341,18.1568,-0.001951,-0.00259022,0.0,0 STARLINK-4198,1 52858U 22062AE  22218.22212581 -.00259022  00000-0 -19510-2 0  9998,2 52858  53.2139 158.9222 0003117 341.9341  18.1568 15.72553347  8323,6729.739000000001,91.571,353.702,349.50699999999995,0.0
52858.0,STARLINK-4198,PAYLOAD,2022-08-06 12:57:29,15.72426748,0.0006482,53.2145,157.3514,15.436,344.6857,-0.00037402,-0.00051168,0.0,0 STARLINK-4198,1 52858U 22062AE  22218.53992781 -.00051168  00000-0 -37402-3 0  9991,2 52858  53.2145 157.3514 0006482  15.4360 344.6857 15.72426748  8376,6730.101,91.578,356.32800000000015,347.603,0.0
52858.0,STARLINK-4198,PAYLOAD,2022-08-06 22:00:00,15.70680923,0.0003177,53.2175,155.4831,6.0454,325.8021,-0.0093054,-0.01056025,0.0,0 STARLINK-4198,1 52858U 22062AE  22218.91667824 -.01056025  00000-0 -93054-2 0  9992,2 52858  53.2175 155.4831 0003177   6.0454 325.8021 15.70680923  1303,6735.087,91.68,359.092,354.81199999999984,0.0
52858.0,STARLINK-4198,PAYLOAD,2022-08-07 14:00:01,15.691646,0.0001419,53.2175,152.197,355.7011,146.1029,-0.0099616,-0.01059564,0.0,0 STARLINK-4198,1 52858U 22062AE  22219.58334491 -.01059564  00000-0 -99616-2 0  9998,2 52858  53.2175 152.1970 0001419 355.7011 146.1029 15.69164600  1300,6739.425,91.769,362.246,360.334,0.0
52858.0,STARLINK-4198,PAYLOAD,2022-08-07 22:00:00,15.6839979,0.0001486999999999,53.2177,150.5571,46.787,178.6281,-0.010182,-0.01050216,0.0,0 STARLINK-4198,1 52858U 22062AE  22219.91667824 -.01050216  00000-0 -10182-1 0  9999,2 52858  53.2177 150.5571 0001487  46.7870 178.6281 15.68399790  1305,6741.616,91.813,364.483,362.478,0.0
